GLOBALSTAR M084         
1 38040U 11080A   24352.44743416 -.00000059  00000+0  25103-3 0  9992
2 38040  52.0000 241.7565 0001099  55.7788 115.6087 12.62272595599713
GLOBALSTAR M080         
1 38041U 11080B   24352.18251962 -.00000069  00000+0  19149-3 0  9998
2 38041  52.0052 244.1076 0001005  37.7653 128.2229 12.62259347599801
GLOBALSTAR M082         
1 38042U 11080C   24352.56020139 -.00000078  00000+0  14567-3 0  9990
2 38042  52.0046 198.3836 0001354 103.4914 280.1275 12.62271413600560
GLOBALSTAR M092         
1 38043U 11080D   24352.56633402 -.00000074  00000+0  16390-3 0  9996
2 38043  52.0093 288.7314 0000766  57.9013 113.6562 12.62270545599018
GLOBALSTAR M090         
1 38044U 11080E   24352.58901517 -.00000086  00000+0  97115-4 0  9992
2 38044  51.9858 192.3373 0001102  96.8137 298.0107 12.62265177600724
GLOBALSTAR M086         
1 38045U 11080F   24352.61626902 -.00000091  00000+0  74040-4 0  9997
2 38045  51.9867 192.7910 0000297  45.7654 353.4323 12.62264863600634
GLOBALSTAR M097         
1 39072U 13005A   24352.55525255 -.00000117  00000+0 -74618-4 0  9990
2 39072  52.0040 107.3390 0000778 127.9911 232.1026 12.62268200547875
GLOBALSTAR M093         
1 39073U 13005B   24352.60741297 -.00000101  00000+0  15608-4 0  9999
2 39073  51.9807 100.7693 0000827 135.8047 224.2886 12.62277262547831
